*******************************************************************************
Ephemeris / WWW_USER Thu Dec  5 18:37:54 2024 Pasadena, USA      / Horizons    
*******************************************************************************
Target body name: 62412 (2000 SY178)              {source: JPL#44}
Center body name: Earth (399)                     {source: DE441}
Center-site name: Mauna Kea
*******************************************************************************
Start time      : A.D. 2018-Dec-06 03:52:00.0000 UT      
Stop  time      : A.D. 2018-Dec-06 16:33:00.0000 UT      
Step-size       : 1 minutes
*******************************************************************************
Target pole/equ : undefined
Target radii    : 5.187 km                                                     
Center geodetic : 204.5278, 19.8260847, 4.21024   {E-lon(deg),Lat(deg),Alt(km)}
Center cylindric: 204.5278, 6006.35451, 2151.0229 {E-lon(deg),Dxy(km),Dz(km)}
Center pole/equ : ITRF93                          {East-longitude positive}
Center radii    : 6378.137, 6378.137, 6356.752 km {Equator_a, b, pole_c}       
Target primary  : Sun
Vis. interferer : MOON (R_eq= 1737.400) km        {source: DE441}
Rel. light bend : Sun                             {source: DE441}
Rel. lght bnd GM: 1.3271E+11 km^3/s^2                                          
Small-body perts: Yes                             {source: SB441-N16}
Atmos refraction: NO (AIRLESS)
RA format       : HMS
Time format     : CAL 
Calendar mode   : Mixed Julian/Gregorian
RTS-only print  : NO       
EOP file        : eop.241205.p250303                                           
EOP coverage    : DATA-BASED 1962-JAN-20 TO 2024-DEC-05. PREDICTS-> 2025-MAR-02
Units conversion: 1 au= 149597870.700 km, c= 299792.458 km/s, 1 day= 86400.0 s 
Table cut-offs 1: Elevation (-90.0deg=NO ),Airmass (>38.000=NO), Daylight (YES)
Table cut-offs 2: Solar elongation (  0.0,180.0=NO ),Local Hour Angle( 0.0=NO )
Table cut-offs 3: RA/DEC angular rate (     0.0=NO )                           
*******************************************************************************
Initial IAU76/J2000 heliocentric ecliptic osculating elements (au, days, deg.):
  EPOCH=  2458127.5 ! 2018-Jan-09.00 (TDB)         Residual RMS= .2787         
   EC= .08141730682229319  QR= 2.89613208739257    TP= 2458420.6685284483      
   OM= 329.1525583823792   W=  163.0619562799197   IN= 4.73619265468861        
  Equivalent ICRF heliocentric cartesian coordinates (au, au/d):
   X= 8.831945932166756E-01  Y= 2.532168596675914E+00  Z= 1.360803999508301E+00
  VX=-9.867256226021401E-03 VY= 2.254941400948641E-03 VZ= 7.028227572403328E-04
Asteroid physical parameters (km, seconds, rotational period in hours):        
   GM= n.a.                RAD= 5.187              ROTPER= 3.33                
   H= 13.88                G= .150                 B-V= n.a.                   
                           ALBEDO= .065            STYP= n.a.                  
*******************************************************************************
 Date__(UT)__HR:MN     R.A._________(ICRF)_________DEC
******************************************************
$$SOE
 2018-Dec-06 10:01     10 47 25.668734 +08 33 36.59395
 2018-Dec-06 10:02     10 47 25.696330 +08 33 36.39049
 2018-Dec-06 10:03     10 47 25.723921 +08 33 36.18703
 2018-Dec-06 10:04     10 47 25.751507 +08 33 35.98358
 2018-Dec-06 10:05     10 47 25.779089 +08 33 35.78013
 2018-Dec-06 10:06     10 47 25.806667 +08 33 35.57668
 2018-Dec-06 10:07     10 47 25.834240 +08 33 35.37324
 2018-Dec-06 10:08     10 47 25.861808 +08 33 35.16979
 2018-Dec-06 10:09     10 47 25.889372 +08 33 34.96635
 2018-Dec-06 10:10     10 47 25.916932 +08 33 34.76292
 2018-Dec-06 10:11     10 47 25.944487 +08 33 34.55948
 2018-Dec-06 10:12     10 47 25.972037 +08 33 34.35605
 2018-Dec-06 10:13     10 47 25.999583 +08 33 34.15262
 2018-Dec-06 10:14     10 47 26.027124 +08 33 33.94919
 2018-Dec-06 10:15     10 47 26.054661 +08 33 33.74577
 2018-Dec-06 10:16     10 47 26.082194 +08 33 33.54234
 2018-Dec-06 10:17     10 47 26.109722 +08 33 33.33892
 2018-Dec-06 10:18     10 47 26.137245 +08 33 33.13550
 2018-Dec-06 10:19     10 47 26.164764 +08 33 32.93209
 2018-Dec-06 10:20     10 47 26.192278 +08 33 32.72867
 2018-Dec-06 10:21     10 47 26.219788 +08 33 32.52526
 2018-Dec-06 10:22     10 47 26.247293 +08 33 32.32185
 2018-Dec-06 10:23     10 47 26.274794 +08 33 32.11844
 2018-Dec-06 10:24     10 47 26.302290 +08 33 31.91503
 2018-Dec-06 10:25     10 47 26.329782 +08 33 31.71163
 2018-Dec-06 10:26     10 47 26.357269 +08 33 31.50823
 2018-Dec-06 10:27     10 47 26.384752 +08 33 31.30483
 2018-Dec-06 10:28     10 47 26.412230 +08 33 31.10143
 2018-Dec-06 10:29     10 47 26.439704 +08 33 30.89803
 2018-Dec-06 10:30     10 47 26.467173 +08 33 30.69464
 2018-Dec-06 10:31     10 47 26.494638 +08 33 30.49124
 2018-Dec-06 10:32     10 47 26.522098 +08 33 30.28785
 2018-Dec-06 10:33     10 47 26.549554 +08 33 30.08446
 2018-Dec-06 10:34     10 47 26.577005 +08 33 29.88107
 2018-Dec-06 10:35     10 47 26.604452 +08 33 29.67769
 2018-Dec-06 10:36     10 47 26.631894 +08 33 29.47430
 2018-Dec-06 10:37     10 47 26.659332 +08 33 29.27092
 2018-Dec-06 10:38     10 47 26.686766 +08 33 29.06753
 2018-Dec-06 10:39     10 47 26.714194 +08 33 28.86415
 2018-Dec-06 10:40     10 47 26.741619 +08 33 28.66077
 2018-Dec-06 10:41     10 47 26.769039 +08 33 28.45740
 2018-Dec-06 10:42     10 47 26.796454 +08 33 28.25402
 2018-Dec-06 10:43     10 47 26.823865 +08 33 28.05064
 2018-Dec-06 10:44     10 47 26.851271 +08 33 27.84727
 2018-Dec-06 10:45     10 47 26.878673 +08 33 27.64390
 2018-Dec-06 10:46     10 47 26.906071 +08 33 27.44052
 2018-Dec-06 10:47     10 47 26.933464 +08 33 27.23715
 2018-Dec-06 10:48     10 47 26.960853 +08 33 27.03378
 2018-Dec-06 10:49     10 47 26.988237 +08 33 26.83041
 2018-Dec-06 10:50     10 47 27.015616 +08 33 26.62705
 2018-Dec-06 10:51     10 47 27.042992 +08 33 26.42368
 2018-Dec-06 10:52     10 47 27.070362 +08 33 26.22031
 2018-Dec-06 10:53     10 47 27.097729 +08 33 26.01695
 2018-Dec-06 10:54     10 47 27.125091 +08 33 25.81358
 2018-Dec-06 10:55     10 47 27.152448 +08 33 25.61022
 2018-Dec-06 10:56     10 47 27.179801 +08 33 25.40686
 2018-Dec-06 10:57     10 47 27.207150 +08 33 25.20349
 2018-Dec-06 10:58     10 47 27.234494 +08 33 25.00013
 2018-Dec-06 10:59     10 47 27.261834 +08 33 24.79677
 2018-Dec-06 11:00     10 47 27.289169 +08 33 24.59341
 2018-Dec-06 11:01     10 47 27.316500 +08 33 24.39005
 2018-Dec-06 11:02     10 47 27.343826 +08 33 24.18669
 2018-Dec-06 11:03     10 47 27.371148 +08 33 23.98334
 2018-Dec-06 11:04     10 47 27.398466 +08 33 23.77998
 2018-Dec-06 11:05     10 47 27.425779 +08 33 23.57662
 2018-Dec-06 11:06     10 47 27.453088 +08 33 23.37326
 2018-Dec-06 11:07     10 47 27.480392 +08 33 23.16991
 2018-Dec-06 11:08     10 47 27.507692 +08 33 22.96655
 2018-Dec-06 11:09     10 47 27.534988 +08 33 22.76320
 2018-Dec-06 11:10     10 47 27.562279 +08 33 22.55984
 2018-Dec-06 11:11     10 47 27.589566 +08 33 22.35648
 2018-Dec-06 11:12     10 47 27.616849 +08 33 22.15313
 2018-Dec-06 11:13     10 47 27.644127 +08 33 21.94977
 2018-Dec-06 11:14     10 47 27.671401 +08 33 21.74642
 2018-Dec-06 11:15     10 47 27.698670 +08 33 21.54306
 2018-Dec-06 11:16     10 47 27.725935 +08 33 21.33971
 2018-Dec-06 11:17     10 47 27.753196 +08 33 21.13635
 2018-Dec-06 11:18     10 47 27.780453 +08 33 20.93300
 2018-Dec-06 11:19     10 47 27.807705 +08 33 20.72964
 2018-Dec-06 11:20     10 47 27.834952 +08 33 20.52629
 2018-Dec-06 11:21     10 47 27.862196 +08 33 20.32293
 2018-Dec-06 11:22     10 47 27.889435 +08 33 20.11958
 2018-Dec-06 11:23     10 47 27.916670 +08 33 19.91622
 2018-Dec-06 11:24     10 47 27.943900 +08 33 19.71286
 2018-Dec-06 11:25     10 47 27.971126 +08 33 19.50951
 2018-Dec-06 11:26     10 47 27.998348 +08 33 19.30615
 2018-Dec-06 11:27     10 47 28.025566 +08 33 19.10279
 2018-Dec-06 11:28     10 47 28.052779 +08 33 18.89944
 2018-Dec-06 11:29     10 47 28.079988 +08 33 18.69608
 2018-Dec-06 11:30     10 47 28.107193 +08 33 18.49272
 2018-Dec-06 11:31     10 47 28.134393 +08 33 18.28936
 2018-Dec-06 11:32     10 47 28.161589 +08 33 18.08600
 2018-Dec-06 11:33     10 47 28.188781 +08 33 17.88264
 2018-Dec-06 11:34     10 47 28.215969 +08 33 17.67928
 2018-Dec-06 11:35     10 47 28.243152 +08 33 17.47592
 2018-Dec-06 11:36     10 47 28.270331 +08 33 17.27256
 2018-Dec-06 11:37     10 47 28.297506 +08 33 17.06920
 2018-Dec-06 11:38     10 47 28.324677 +08 33 16.86583
 2018-Dec-06 11:39     10 47 28.351843 +08 33 16.66247
 2018-Dec-06 11:40     10 47 28.379006 +08 33 16.45910
 2018-Dec-06 11:41     10 47 28.406164 +08 33 16.25574
 2018-Dec-06 11:42     10 47 28.433318 +08 33 16.05237
 2018-Dec-06 11:43     10 47 28.460467 +08 33 15.84900
 2018-Dec-06 11:44     10 47 28.487613 +08 33 15.64563
 2018-Dec-06 11:45     10 47 28.514754 +08 33 15.44226
 2018-Dec-06 11:46     10 47 28.541891 +08 33 15.23889
 2018-Dec-06 11:47     10 47 28.569024 +08 33 15.03552
 2018-Dec-06 11:48     10 47 28.596153 +08 33 14.83215
 2018-Dec-06 11:49     10 47 28.623278 +08 33 14.62877
 2018-Dec-06 11:50     10 47 28.650398 +08 33 14.42540
 2018-Dec-06 11:51     10 47 28.677514 +08 33 14.22202
 2018-Dec-06 11:52     10 47 28.704627 +08 33 14.01864
 2018-Dec-06 11:53     10 47 28.731735 +08 33 13.81526
 2018-Dec-06 11:54     10 47 28.758839 +08 33 13.61188
 2018-Dec-06 11:55     10 47 28.785939 +08 33 13.40850
 2018-Dec-06 11:56     10 47 28.813034 +08 33 13.20512
 2018-Dec-06 11:57     10 47 28.840126 +08 33 13.00173
 2018-Dec-06 11:58     10 47 28.867214 +08 33 12.79835
 2018-Dec-06 11:59     10 47 28.894297 +08 33 12.59496
 2018-Dec-06 12:00     10 47 28.921377 +08 33 12.39157
 2018-Dec-06 12:01     10 47 28.948452 +08 33 12.18818
 2018-Dec-06 12:02     10 47 28.975523 +08 33 11.98479
 2018-Dec-06 12:03     10 47 29.002591 +08 33 11.78140
